INTELSAT 21 (IS-21)     
1 38749U 12045A   26168.88535088 -.00000290  00000+0  00000+0 0  9991
2 38749   0.0171   2.7764 0001389 103.9364  60.1373  1.00269964 50535
INTELSAT 23 (IS-23)     
1 38867U 12057A   26168.88630421 -.00000290  00000+0  00000+0 0  9992
2 38867   0.0131 313.6421 0000162  58.3730 160.1836  1.00267723 49965
FM-6                    
1 39360U 13058A   26168.46919677  .00000000  00000+0  00000+0 0  9998
2 39360   0.0312  44.0420 0002221 130.9080 143.3512  1.00264299 46070
INTELSAT 30 (IS-30)     
1 40271U 14062A   26168.32405734 -.00000155  00000+0  00000+0 0  9998
2 40271   0.0268  50.1227 0001219 328.9119 268.1517  1.00270102  6790
DIRECTV 14              
1 40333U 14078B   26168.97879149 -.00000131  00000+0  00000+0 0  9994
2 40333   0.0098  23.1294 0000435 292.0243 204.1979  1.00271608 42055
DIRECTV 15              
1 40663U 15026A   26168.87642418 -.00000107  00000+0  00000+0 0  9993
2 40663   0.0114  46.9988 0000402 273.9598 157.7890  1.00267772 40474
SKY MEXICO-1            
1 40664U 15026B   26168.88119087 -.00000240  00000+0  00000+0 0  9994
2 40664   0.0159  23.9234 0002076  83.8067  36.8187  1.00270017 40462
INTELSAT 34 (IS-34)     
1 40874U 15039A   26168.88578421 -.00000291  00000+0  00000+0 0  9998
2 40874   0.0101 358.2034 0000465 330.1165 201.2037  1.00269570 39643
INTELSAT 31 (IS-31)     
1 41581U 16035A   26168.87798419 -.00000156  00000+0  00000+0 0  9991
2 41581   0.0154 290.3289 0001069 325.5654 231.2457  1.00269673 36692
INTELSAT 36 (IS-36)     
1 41747U 16053A   26168.91040170 -.00000030  00000+0  00000+0 0  9995
2 41747   0.0131  14.1096 0002149 319.3699 328.9154  1.00271086 35967
INTELSAT 32E (IS-32E)   
1 41945U 17007B   26168.81694098 -.00000275  00000+0  00000+0 0  9999
2 41945   0.0178 357.9916 0000715 314.7958 204.1882  1.00268882 34233
INTELSAT 35E (IS-35E)   
1 42818U 17041A   26168.67612764  .00000000  00000+0  00000+0 0  9996
2 42818   0.0204   1.0645 0001683  79.9055  33.8532  1.00266508 32827
INTELSAT 37E (IS-37E)   
1 42950U 17059A   26168.89323564  .00000000  00000+0  00000+0 0  9993
2 42950   0.0211  10.8043 0002460 100.9069  98.0162  1.00269834 32070
AZERSPACE 2 (IS-38)     
1 43632U 18074A   26168.90572168  .00000131  00000+0  00000+0 0  9992
2 43632   0.0174  10.6964 0001278  77.9689 188.6477  1.00271144 28452
HORIZONS-3E             
1 43633U 18074B   26168.71640351 -.00000036  00000+0  00000+0 0  9997
2 43633   0.0021 233.5565 0000869  40.2741  59.0407  1.00270832 28349
AT&T T-16               
1 44333U 19034A   26168.59164146 -.00000120  00000+0  00000+0 0  9995
2 44333   0.0252  66.2499 0000771 211.2042 100.5032  1.00268538 25631
INTELSAT 39 (IS-39)     
1 44476U 19049B   26168.90910169  .00000028  00000+0  00000+0 0  9994
2 44476   0.0182 352.6794 0000908 327.5619 335.1358  1.00270797 25136
GALAXY 30 (G-30)        
1 46114U 20056C   26168.72949024  .00000032  00000+0  00000+0 0  9992
2 46114   0.0146  50.6946 0002128  36.1125 316.7814  1.00271477 21293
GALAXY 33 (G-33)        
1 54026U 22128A   26168.72793023  .00000074  00000+0  00000+0 0  9997
2 54026   0.0135  36.9082 0001638  51.3449 306.7868  1.00272294 13740
GALAXY 34 (G-34)        
1 54027U 22128B   26168.72862358  .00000053  00000+0  00000+0 0  9993
2 54027   0.0148  14.9716 0001609  90.3282 293.9894  1.00277403 13913
GALAXY 31 (G-31)        
1 54243U 22153A   26168.65896756  .00000008  00000+0  00000+0 0  9992
2 54243   0.0132  53.6046 0001046  23.1287 305.3899  1.00271249  7138
GALAXY 32 (G-32)        
1 54244U 22153B   26168.87876419 -.00000180  00000+0  00000+0 0  9993
2 54244   0.0094  18.6564 0002073  14.9107  97.9137  1.00271682 13151
GALAXY 35 (G-35)        
1 54741U 22170A   26168.87841752 -.00000168  00000+0  00000+0 0  9992
2 54741   0.0144  34.2307 0001761  49.0374  45.9727  1.00272004 12905
GALAXY 36 (G-36)        
1 54742U 22170B   26168.87919752 -.00000190  00000+0  00000+0 0  9994
2 54742   0.0109 303.6397 0002553 141.1237  48.8681  1.00270129 12784
GALAXY 37 (G-37)        
1 57493U 23112A   26168.65775422  .00000043  00000+0  00000+0 0  9993
2 57493   0.0168 330.4587 0001756 110.7242 294.5174  1.00272276 10540
